ZK-1A R/B               
1 67002U 25292K   26001.18733002  .00194878  12602-4  84945-3 0  9993
2 67002  97.7193  80.6085 0197588 293.9701  64.0977 15.61153554  3427
STARLINK-35660          
1 67003U 25293A   26001.58335648 -.00004780  00000+0 -75038-4 0  9995
2 67003  69.9996 267.1425 0003288 265.4544 287.0462 15.52510332  3340
STARLINK-35913          
1 67004U 25293B   26001.58335648 -.00033422  00000+0 -54268-3 0  9992
2 67004  69.9996 267.1402 0003254 265.4653 288.9503 15.52526453  3358
STARLINK-36148          
1 67005U 25293C   26001.58335648  .00005107  00000+0  85720-4 0  9998
2 67005  69.9999 267.1380 0003599 266.1250 290.2120 15.52503828  3352
STARLINK-36156          
1 67006U 25293D   26001.58335648  .00097042  00000+0  15633-2 0  9992
2 67006  69.9996 267.1338 0002654 263.2451 296.8790 15.52478528  3358
STARLINK-36123          
1 67007U 25293E   26001.58335648  .00100856  00000+0  16256-2 0  9993
2 67007  69.9997 267.1371 0002618 262.1400 296.0474 15.52448502  3359
STARLINK-36163          
1 67008U 25293F   26001.58335648 -.00091613  00000+0 -15013-2 0  9996
2 67008  69.9997 267.1312 0002658 263.4139 298.6511 15.52563315  3352
STARLINK-36118          
1 67009U 25293G   26001.58335648 -.00043038  00000+0 -70036-3 0  9992
2 67009  69.9995 267.1287 0003096 264.6718 299.3308 15.52530206  3282
STARLINK-36189          
1 67010U 25293H   26001.58335648 -.00034135  00000+0 -55396-3 0  9994
2 67010  69.9998 267.1247 0003041 269.0154 298.7835 15.52547142  3359
STARLINK-36167          
1 67011U 25293J   26001.58335648 -.00016307  00000+0 -26290-3 0  9997
2 67011  69.9995 267.1264 0002805 262.7026 303.2089 15.52519453  3280
STARLINK-36175          
1 67012U 25293K   26001.58335648 -.00017653  00000+0 -28488-3 0  9994
2 67012  69.9996 267.1217 0003039 264.6931 305.0552 15.52517785  3298
STARLINK-35856          
1 67013U 25293L   26001.58335648  .00210994  00000+0  32928-2 0  9999
2 67013  69.9997 267.1200 0003298 265.1994 306.9913 15.52933328  3290
