CCSDS_OMM_VERS = 2.0
CREATION_DATE  = 
ORIGINATOR     = 

OBJECT_NAME    = ZK-1A R/B
OBJECT_ID      = 2025-292K
CENTER_NAME    = EARTH
REF_FRAME      = TEME
TIME_SYSTEM    = UTC
MEAN_ELEMENT_THEORY = SGP/SGP4

EPOCH          = 2026-01-01T04:29:45.313728
MEAN_MOTION    = 15.61153554
ECCENTRICITY   = .0197588
INCLINATION    = 97.7193
RA_OF_ASC_NODE = 80.6085
ARG_OF_PERICENTER = 293.9701
MEAN_ANOMALY   = 64.0977

EPHEMERIS_TYPE = 0
CLASSIFICATION_TYPE = U
NORAD_CAT_ID   = 67002
ELEMENT_SET_NO = 999
REV_AT_EPOCH   = 342
BSTAR          = .84945177E-3
MEAN_MOTION_DOT = .194878E-2
MEAN_MOTION_DDOT = .12602025E-4

CCSDS_OMM_VERS = 2.0
CREATION_DATE  = 
ORIGINATOR     = 

OBJECT_NAME    = STARLINK-35660
OBJECT_ID      = 2025-293A
CENTER_NAME    = EARTH
REF_FRAME      = TEME
TIME_SYSTEM    = UTC
MEAN_ELEMENT_THEORY = SGP/SGP4

EPOCH          = 2026-01-01T14:00:01.999872
MEAN_MOTION    = 15.52510332
ECCENTRICITY   = .00032882
INCLINATION    = 69.9996
RA_OF_ASC_NODE = 267.1425
ARG_OF_PERICENTER = 265.4544
MEAN_ANOMALY   = 287.0462

EPHEMERIS_TYPE = 0
CLASSIFICATION_TYPE = U
NORAD_CAT_ID   = 67003
ELEMENT_SET_NO = 999
REV_AT_EPOCH   = 334
BSTAR          = -.75037568E-4
MEAN_MOTION_DOT = -.478E-4
MEAN_MOTION_DDOT = 0

CCSDS_OMM_VERS = 2.0
CREATION_DATE  = 
ORIGINATOR     = 

OBJECT_NAME    = STARLINK-35913
OBJECT_ID      = 2025-293B
CENTER_NAME    = EARTH
REF_FRAME      = TEME
TIME_SYSTEM    = UTC
MEAN_ELEMENT_THEORY = SGP/SGP4

EPOCH          = 2026-01-01T14:00:01.999872
MEAN_MOTION    = 15.52526453
ECCENTRICITY   = .00032545
INCLINATION    = 69.9996
RA_OF_ASC_NODE = 267.1402
ARG_OF_PERICENTER = 265.4653
MEAN_ANOMALY   = 288.9503

EPHEMERIS_TYPE = 0
CLASSIFICATION_TYPE = U
NORAD_CAT_ID   = 67004
ELEMENT_SET_NO = 999
REV_AT_EPOCH   = 335
BSTAR          = -.54267847E-3
MEAN_MOTION_DOT = -.33422E-3
MEAN_MOTION_DDOT = 0

CCSDS_OMM_VERS = 2.0
CREATION_DATE  = 
ORIGINATOR     = 

OBJECT_NAME    = STARLINK-36148
OBJECT_ID      = 2025-293C
CENTER_NAME    = EARTH
REF_FRAME      = TEME
TIME_SYSTEM    = UTC
MEAN_ELEMENT_THEORY = SGP/SGP4

EPOCH          = 2026-01-01T14:00:01.999872
MEAN_MOTION    = 15.52503828
ECCENTRICITY   = .00035993
INCLINATION    = 69.9999
RA_OF_ASC_NODE = 267.1380
ARG_OF_PERICENTER = 266.1250
MEAN_ANOMALY   = 290.2120

EPHEMERIS_TYPE = 0
CLASSIFICATION_TYPE = U
NORAD_CAT_ID   = 67005
ELEMENT_SET_NO = 999
REV_AT_EPOCH   = 335
BSTAR          = .85719749E-4
MEAN_MOTION_DOT = .5107E-4
MEAN_MOTION_DDOT = 0

CCSDS_OMM_VERS = 2.0
CREATION_DATE  = 
ORIGINATOR     = 

OBJECT_NAME    = STARLINK-36156
OBJECT_ID      = 2025-293D
CENTER_NAME    = EARTH
REF_FRAME      = TEME
TIME_SYSTEM    = UTC
MEAN_ELEMENT_THEORY = SGP/SGP4

EPOCH          = 2026-01-01T14:00:01.999872
MEAN_MOTION    = 15.52478528
ECCENTRICITY   = .00026541
INCLINATION    = 69.9996
RA_OF_ASC_NODE = 267.1338
ARG_OF_PERICENTER = 263.2451
MEAN_ANOMALY   = 296.8790

EPHEMERIS_TYPE = 0
CLASSIFICATION_TYPE = U
NORAD_CAT_ID   = 67006
ELEMENT_SET_NO = 999
REV_AT_EPOCH   = 335
BSTAR          = .15632807E-2
MEAN_MOTION_DOT = .97042E-3
MEAN_MOTION_DDOT = 0

CCSDS_OMM_VERS = 2.0
CREATION_DATE  = 
ORIGINATOR     = 

OBJECT_NAME    = STARLINK-36123
OBJECT_ID      = 2025-293E
CENTER_NAME    = EARTH
REF_FRAME      = TEME
TIME_SYSTEM    = UTC
MEAN_ELEMENT_THEORY = SGP/SGP4

EPOCH          = 2026-01-01T14:00:01.999872
MEAN_MOTION    = 15.52448502
ECCENTRICITY   = .00026181
INCLINATION    = 69.9997
RA_OF_ASC_NODE = 267.1371
ARG_OF_PERICENTER = 262.1400
MEAN_ANOMALY   = 296.0474

EPHEMERIS_TYPE = 0
CLASSIFICATION_TYPE = U
NORAD_CAT_ID   = 67007
ELEMENT_SET_NO = 999
REV_AT_EPOCH   = 335
BSTAR          = .16255869E-2
MEAN_MOTION_DOT = .100856E-2
MEAN_MOTION_DDOT = 0

CCSDS_OMM_VERS = 2.0
CREATION_DATE  = 
ORIGINATOR     = 

OBJECT_NAME    = STARLINK-36163
OBJECT_ID      = 2025-293F
CENTER_NAME    = EARTH
REF_FRAME      = TEME
TIME_SYSTEM    = UTC
MEAN_ELEMENT_THEORY = SGP/SGP4

EPOCH          = 2026-01-01T14:00:01.999872
MEAN_MOTION    = 15.52563315
ECCENTRICITY   = .00026587
INCLINATION    = 69.9997
RA_OF_ASC_NODE = 267.1312
ARG_OF_PERICENTER = 263.4139
MEAN_ANOMALY   = 298.6511

EPHEMERIS_TYPE = 0
CLASSIFICATION_TYPE = U
NORAD_CAT_ID   = 67008
ELEMENT_SET_NO = 999
REV_AT_EPOCH   = 335
BSTAR          = -.15013485E-2
MEAN_MOTION_DOT = -.91613E-3
MEAN_MOTION_DDOT = 0

CCSDS_OMM_VERS = 2.0
CREATION_DATE  = 
ORIGINATOR     = 

OBJECT_NAME    = STARLINK-36118
OBJECT_ID      = 2025-293G
CENTER_NAME    = EARTH
REF_FRAME      = TEME
TIME_SYSTEM    = UTC
MEAN_ELEMENT_THEORY = SGP/SGP4

EPOCH          = 2026-01-01T14:00:01.999872
MEAN_MOTION    = 15.52530206
ECCENTRICITY   = .0003096
INCLINATION    = 69.9995
RA_OF_ASC_NODE = 267.1287
ARG_OF_PERICENTER = 264.6718
MEAN_ANOMALY   = 299.3308

EPHEMERIS_TYPE = 0
CLASSIFICATION_TYPE = U
NORAD_CAT_ID   = 67009
ELEMENT_SET_NO = 999
REV_AT_EPOCH   = 328
BSTAR          = -.70036432E-3
MEAN_MOTION_DOT = -.43038E-3
MEAN_MOTION_DDOT = 0

CCSDS_OMM_VERS = 2.0
CREATION_DATE  = 
ORIGINATOR     = 

OBJECT_NAME    = STARLINK-36189
OBJECT_ID      = 2025-293H
CENTER_NAME    = EARTH
REF_FRAME      = TEME
TIME_SYSTEM    = UTC
MEAN_ELEMENT_THEORY = SGP/SGP4

EPOCH          = 2026-01-01T14:00:01.999872
MEAN_MOTION    = 15.52547142
ECCENTRICITY   = .00030414
INCLINATION    = 69.9998
RA_OF_ASC_NODE = 267.1247
ARG_OF_PERICENTER = 269.0154
MEAN_ANOMALY   = 298.7835

EPHEMERIS_TYPE = 0
CLASSIFICATION_TYPE = U
NORAD_CAT_ID   = 67010
ELEMENT_SET_NO = 999
REV_AT_EPOCH   = 335
BSTAR          = -.55395849E-3
MEAN_MOTION_DOT = -.34135E-3
MEAN_MOTION_DDOT = 0

CCSDS_OMM_VERS = 2.0
CREATION_DATE  = 
ORIGINATOR     = 

OBJECT_NAME    = STARLINK-36167
OBJECT_ID      = 2025-293J
CENTER_NAME    = EARTH
REF_FRAME      = TEME
TIME_SYSTEM    = UTC
MEAN_ELEMENT_THEORY = SGP/SGP4

EPOCH          = 2026-01-01T14:00:01.999872
MEAN_MOTION    = 15.52519453
ECCENTRICITY   = .00028054
INCLINATION    = 69.9995
RA_OF_ASC_NODE = 267.1264
ARG_OF_PERICENTER = 262.7026
MEAN_ANOMALY   = 303.2089

EPHEMERIS_TYPE = 0
CLASSIFICATION_TYPE = U
NORAD_CAT_ID   = 67011
ELEMENT_SET_NO = 999
REV_AT_EPOCH   = 328
BSTAR          = -.26289659E-3
MEAN_MOTION_DOT = -.16307E-3
MEAN_MOTION_DDOT = 0

CCSDS_OMM_VERS = 2.0
CREATION_DATE  = 
ORIGINATOR     = 

OBJECT_NAME    = STARLINK-36175
OBJECT_ID      = 2025-293K
CENTER_NAME    = EARTH
REF_FRAME      = TEME
TIME_SYSTEM    = UTC
MEAN_ELEMENT_THEORY = SGP/SGP4

EPOCH          = 2026-01-01T14:00:01.999872
MEAN_MOTION    = 15.52517785
ECCENTRICITY   = .00030392
INCLINATION    = 69.9996
RA_OF_ASC_NODE = 267.1217
ARG_OF_PERICENTER = 264.6931
MEAN_ANOMALY   = 305.0552

EPHEMERIS_TYPE = 0
CLASSIFICATION_TYPE = U
NORAD_CAT_ID   = 67012
ELEMENT_SET_NO = 999
REV_AT_EPOCH   = 329
BSTAR          = -.28488001E-3
MEAN_MOTION_DOT = -.17653E-3
MEAN_MOTION_DDOT = 0

CCSDS_OMM_VERS = 2.0
CREATION_DATE  = 
ORIGINATOR     = 

OBJECT_NAME    = STARLINK-35856
OBJECT_ID      = 2025-293L
CENTER_NAME    = EARTH
REF_FRAME      = TEME
TIME_SYSTEM    = UTC
MEAN_ELEMENT_THEORY = SGP/SGP4

EPOCH          = 2026-01-01T14:00:01.999872
MEAN_MOTION    = 15.52933328
ECCENTRICITY   = .00032981
INCLINATION    = 69.9997
RA_OF_ASC_NODE = 267.1200
ARG_OF_PERICENTER = 265.1994
MEAN_ANOMALY   = 306.9913

EPHEMERIS_TYPE = 0
CLASSIFICATION_TYPE = U
NORAD_CAT_ID   = 67013
ELEMENT_SET_NO = 999
REV_AT_EPOCH   = 329
BSTAR          = .32928082E-2
MEAN_MOTION_DOT = .210994E-2
MEAN_MOTION_DDOT = 0

